MALLIGYONG-1            
1 58400U 23179A   24136.57462182  .00011241  00000+0  48705-3 0  9995
2 58400  97.4077  23.9228 0009827  28.5172 331.6600 15.22511198 26765
